ONEWEB-0349             
1 49281U 21090C   24281.80992291 -.00000234  00000+0 -60753-3 0  9997
2 49281  87.9279  37.2496 0001742 105.0376 255.0950 13.20772921148334
ONEWEB-0353             
1 49282U 21090D   24281.81936588  .00000334  00000+0  86567-3 0  9996
2 49282  87.8988  52.4715 0001786 105.4691 254.6636 13.14505343146470
ONEWEB-0356             
1 49283U 21090E   24281.88411256  .00000178  00000+0  40515-3 0  9993
2 49283  87.9277  37.2285 0000992 126.3193 233.8032 13.20773589149639
ONEWEB-0358             
1 49284U 21090F   24281.83833421  .00000225  00000+0  52030-3 0  9999
2 49284  87.9277  37.2250 0001318  99.3054 260.8228 13.20772326149062
ONEWEB-0359             
1 49285U 21090G   24281.83518876  .00000199  00000+0  45682-3 0  9999
2 49285  87.9278  37.2422 0001672  84.6071 275.5253 13.20773323149041
ONEWEB-0360             
1 49286U 21090H   24281.82570435  .00000238  00000+0  55373-3 0  9990
2 49286  87.9279  37.2493 0001678  95.2482 264.8843 13.20772508148354
ONEWEB-0361             
1 49287U 21090J   24281.80677837  .00000199  00000+0  45723-3 0  9997
2 49287  87.9277  37.2479 0001632 104.3847 255.7467 13.20774185148808
ONEWEB-0362             
1 49288U 21090K   24281.87691288  .00000205  00000+0  48030-3 0  9993
2 49288  87.9131  67.7556 0001895  90.5025 269.6325 13.19722827145490
