<?xml version="1.0" encoding="UTF-8"?>
<ndm xmlns:xsi="http://www.w3.org/2001/XMLSchema-instance" xsi:noNamespaceSchemaLocation="https://sanaregistry.org/r/ndmxml_unqualified/ndmxml-2.0.0-master-2.0.xsd">
<omm id="CCSDS_OMM_VERS" version="2.0">
<header><CREATION_DATE/><ORIGINATOR/></header><body><segment><metadata><OBJECT_NAME>ONEWEB-0349</OBJECT_NAME><OBJECT_ID>2021-090C</OBJECT_ID><CENTER_NAME>EARTH</CENTER_NAME><REF_FRAME>TEME</REF_FRAME><TIME_SYSTEM>UTC</TIME_SYSTEM><MEAN_ELEMENT_THEORY>SGP4</MEAN_ELEMENT_THEORY></metadata><data><meanElements><EPOCH>2024-10-07T19:26:17.339424</EPOCH><MEAN_MOTION>13.20772921</MEAN_MOTION><ECCENTRICITY>.0001742</ECCENTRICITY><INCLINATION>87.9279</INCLINATION><RA_OF_ASC_NODE>37.2496</RA_OF_ASC_NODE><ARG_OF_PERICENTER>105.0376</ARG_OF_PERICENTER><MEAN_ANOMALY>255.0950</MEAN_ANOMALY></meanElements><tleParameters><EPHEMERIS_TYPE>0</EPHEMERIS_TYPE><CLASSIFICATION_TYPE>U</CLASSIFICATION_TYPE><NORAD_CAT_ID>49281</NORAD_CAT_ID><ELEMENT_SET_NO>999</ELEMENT_SET_NO><REV_AT_EPOCH>14833</REV_AT_EPOCH><BSTAR>-.60753E-3</BSTAR><MEAN_MOTION_DOT>-.234E-5</MEAN_MOTION_DOT><MEAN_MOTION_DDOT>0</MEAN_MOTION_DDOT></tleParameters></data></segment></body></omm>
<omm id="CCSDS_OMM_VERS" version="2.0">
<header><CREATION_DATE/><ORIGINATOR/></header><body><segment><metadata><OBJECT_NAME>ONEWEB-0353</OBJECT_NAME><OBJECT_ID>2021-090D</OBJECT_ID><CENTER_NAME>EARTH</CENTER_NAME><REF_FRAME>TEME</REF_FRAME><TIME_SYSTEM>UTC</TIME_SYSTEM><MEAN_ELEMENT_THEORY>SGP4</MEAN_ELEMENT_THEORY></metadata><data><meanElements><EPOCH>2024-10-07T19:39:53.212032</EPOCH><MEAN_MOTION>13.14505343</MEAN_MOTION><ECCENTRICITY>.0001786</ECCENTRICITY><INCLINATION>87.8988</INCLINATION><RA_OF_ASC_NODE>52.4715</RA_OF_ASC_NODE><ARG_OF_PERICENTER>105.4691</ARG_OF_PERICENTER><MEAN_ANOMALY>254.6636</MEAN_ANOMALY></meanElements><tleParameters><EPHEMERIS_TYPE>0</EPHEMERIS_TYPE><CLASSIFICATION_TYPE>U</CLASSIFICATION_TYPE><NORAD_CAT_ID>49282</NORAD_CAT_ID><ELEMENT_SET_NO>999</ELEMENT_SET_NO><REV_AT_EPOCH>14647</REV_AT_EPOCH><BSTAR>.86567E-3</BSTAR><MEAN_MOTION_DOT>.334E-5</MEAN_MOTION_DOT><MEAN_MOTION_DDOT>0</MEAN_MOTION_DDOT></tleParameters></data></segment></body></omm>
<omm id="CCSDS_OMM_VERS" version="2.0">
<header><CREATION_DATE/><ORIGINATOR/></header><body><segment><metadata><OBJECT_NAME>ONEWEB-0356</OBJECT_NAME><OBJECT_ID>2021-090E</OBJECT_ID><CENTER_NAME>EARTH</CENTER_NAME><REF_FRAME>TEME</REF_FRAME><TIME_SYSTEM>UTC</TIME_SYSTEM><MEAN_ELEMENT_THEORY>SGP4</MEAN_ELEMENT_THEORY></metadata><data><meanElements><EPOCH>2024-10-07T21:13:07.325184</EPOCH><MEAN_MOTION>13.20773589</MEAN_MOTION><ECCENTRICITY>.0000992</ECCENTRICITY><INCLINATION>87.9277</INCLINATION><RA_OF_ASC_NODE>37.2285</RA_OF_ASC_NODE><ARG_OF_PERICENTER>126.3193</ARG_OF_PERICENTER><MEAN_ANOMALY>233.8032</MEAN_ANOMALY></meanElements><tleParameters><EPHEMERIS_TYPE>0</EPHEMERIS_TYPE><CLASSIFICATION_TYPE>U</CLASSIFICATION_TYPE><NORAD_CAT_ID>49283</NORAD_CAT_ID><ELEMENT_SET_NO>999</ELEMENT_SET_NO><REV_AT_EPOCH>14963</REV_AT_EPOCH><BSTAR>.40515E-3</BSTAR><MEAN_MOTION_DOT>.178E-5</MEAN_MOTION_DOT><MEAN_MOTION_DDOT>0</MEAN_MOTION_DDOT></tleParameters></data></segment></body></omm>
<omm id="CCSDS_OMM_VERS" version="2.0">
<header><CREATION_DATE/><ORIGINATOR/></header><body><segment><metadata><OBJECT_NAME>ONEWEB-0358</OBJECT_NAME><OBJECT_ID>2021-090F</OBJECT_ID><CENTER_NAME>EARTH</CENTER_NAME><REF_FRAME>TEME</REF_FRAME><TIME_SYSTEM>UTC</TIME_SYSTEM><MEAN_ELEMENT_THEORY>SGP4</MEAN_ELEMENT_THEORY></metadata><data><meanElements><EPOCH>2024-10-07T20:07:12.075744</EPOCH><MEAN_MOTION>13.20772326</MEAN_MOTION><ECCENTRICITY>.0001318</ECCENTRICITY><INCLINATION>87.9277</INCLINATION><RA_OF_ASC_NODE>37.2250</RA_OF_ASC_NODE><ARG_OF_PERICENTER>99.3054</ARG_OF_PERICENTER><MEAN_ANOMALY>260.8228</MEAN_ANOMALY></meanElements><tleParameters><EPHEMERIS_TYPE>0</EPHEMERIS_TYPE><CLASSIFICATION_TYPE>U</CLASSIFICATION_TYPE><NORAD_CAT_ID>49284</NORAD_CAT_ID><ELEMENT_SET_NO>999</ELEMENT_SET_NO><REV_AT_EPOCH>14906</REV_AT_EPOCH><BSTAR>.5203E-3</BSTAR><MEAN_MOTION_DOT>.225E-5</MEAN_MOTION_DOT><MEAN_MOTION_DDOT>0</MEAN_MOTION_DDOT></tleParameters></data></segment></body></omm>
<omm id="CCSDS_OMM_VERS" version="2.0">
<header><CREATION_DATE/><ORIGINATOR/></header><body><segment><metadata><OBJECT_NAME>ONEWEB-0359</OBJECT_NAME><OBJECT_ID>2021-090G</OBJECT_ID><CENTER_NAME>EARTH</CENTER_NAME><REF_FRAME>TEME</REF_FRAME><TIME_SYSTEM>UTC</TIME_SYSTEM><MEAN_ELEMENT_THEORY>SGP4</MEAN_ELEMENT_THEORY></metadata><data><meanElements><EPOCH>2024-10-07T20:02:40.308864</EPOCH><MEAN_MOTION>13.20773323</MEAN_MOTION><ECCENTRICITY>.0001672</ECCENTRICITY><INCLINATION>87.9278</INCLINATION><RA_OF_ASC_NODE>37.2422</RA_OF_ASC_NODE><ARG_OF_PERICENTER>84.6071</ARG_OF_PERICENTER><MEAN_ANOMALY>275.5253</MEAN_ANOMALY></meanElements><tleParameters><EPHEMERIS_TYPE>0</EPHEMERIS_TYPE><CLASSIFICATION_TYPE>U</CLASSIFICATION_TYPE><NORAD_CAT_ID>49285</NORAD_CAT_ID><ELEMENT_SET_NO>999</ELEMENT_SET_NO><REV_AT_EPOCH>14904</REV_AT_EPOCH><BSTAR>.45682E-3</BSTAR><MEAN_MOTION_DOT>.199E-5</MEAN_MOTION_DOT><MEAN_MOTION_DDOT>0</MEAN_MOTION_DDOT></tleParameters></data></segment></body></omm>
<omm id="CCSDS_OMM_VERS" version="2.0">
<header><CREATION_DATE/><ORIGINATOR/></header><body><segment><metadata><OBJECT_NAME>ONEWEB-0360</OBJECT_NAME><OBJECT_ID>2021-090H</OBJECT_ID><CENTER_NAME>EARTH</CENTER_NAME><REF_FRAME>TEME</REF_FRAME><TIME_SYSTEM>UTC</TIME_SYSTEM><MEAN_ELEMENT_THEORY>SGP4</MEAN_ELEMENT_THEORY></metadata><data><meanElements><EPOCH>2024-10-07T19:49:00.855840</EPOCH><MEAN_MOTION>13.20772508</MEAN_MOTION><ECCENTRICITY>.0001678</ECCENTRICITY><INCLINATION>87.9279</INCLINATION><RA_OF_ASC_NODE>37.2493</RA_OF_ASC_NODE><ARG_OF_PERICENTER>95.2482</ARG_OF_PERICENTER><MEAN_ANOMALY>264.8843</MEAN_ANOMALY></meanElements><tleParameters><EPHEMERIS_TYPE>0</EPHEMERIS_TYPE><CLASSIFICATION_TYPE>U</CLASSIFICATION_TYPE><NORAD_CAT_ID>49286</NORAD_CAT_ID><ELEMENT_SET_NO>999</ELEMENT_SET_NO><REV_AT_EPOCH>14835</REV_AT_EPOCH><BSTAR>.55373E-3</BSTAR><MEAN_MOTION_DOT>.238E-5</MEAN_MOTION_DOT><MEAN_MOTION_DDOT>0</MEAN_MOTION_DDOT></tleParameters></data></segment></body></omm>
<omm id="CCSDS_OMM_VERS" version="2.0">
<header><CREATION_DATE/><ORIGINATOR/></header><body><segment><metadata><OBJECT_NAME>ONEWEB-0361</OBJECT_NAME><OBJECT_ID>2021-090J</OBJECT_ID><CENTER_NAME>EARTH</CENTER_NAME><REF_FRAME>TEME</REF_FRAME><TIME_SYSTEM>UTC</TIME_SYSTEM><MEAN_ELEMENT_THEORY>SGP4</MEAN_ELEMENT_THEORY></metadata><data><meanElements><EPOCH>2024-10-07T19:21:45.651168</EPOCH><MEAN_MOTION>13.20774185</MEAN_MOTION><ECCENTRICITY>.0001632</ECCENTRICITY><INCLINATION>87.9277</INCLINATION><RA_OF_ASC_NODE>37.2479</RA_OF_ASC_NODE><ARG_OF_PERICENTER>104.3847</ARG_OF_PERICENTER><MEAN_ANOMALY>255.7467</MEAN_ANOMALY></meanElements><tleParameters><EPHEMERIS_TYPE>0</EPHEMERIS_TYPE><CLASSIFICATION_TYPE>U</CLASSIFICATION_TYPE><NORAD_CAT_ID>49287</NORAD_CAT_ID><ELEMENT_SET_NO>999</ELEMENT_SET_NO><REV_AT_EPOCH>14880</REV_AT_EPOCH><BSTAR>.45723E-3</BSTAR><MEAN_MOTION_DOT>.199E-5</MEAN_MOTION_DOT><MEAN_MOTION_DDOT>0</MEAN_MOTION_DDOT></tleParameters></data></segment></body></omm>
<omm id="CCSDS_OMM_VERS" version="2.0">
<header><CREATION_DATE/><ORIGINATOR/></header><body><segment><metadata><OBJECT_NAME>ONEWEB-0362</OBJECT_NAME><OBJECT_ID>2021-090K</OBJECT_ID><CENTER_NAME>EARTH</CENTER_NAME><REF_FRAME>TEME</REF_FRAME><TIME_SYSTEM>UTC</TIME_SYSTEM><MEAN_ELEMENT_THEORY>SGP4</MEAN_ELEMENT_THEORY></metadata><data><meanElements><EPOCH>2024-10-07T21:02:45.272832</EPOCH><MEAN_MOTION>13.19722827</MEAN_MOTION><ECCENTRICITY>.0001895</ECCENTRICITY><INCLINATION>87.9131</INCLINATION><RA_OF_ASC_NODE>67.7556</RA_OF_ASC_NODE><ARG_OF_PERICENTER>90.5025</ARG_OF_PERICENTER><MEAN_ANOMALY>269.6325</MEAN_ANOMALY></meanElements><tleParameters><EPHEMERIS_TYPE>0</EPHEMERIS_TYPE><CLASSIFICATION_TYPE>U</CLASSIFICATION_TYPE><NORAD_CAT_ID>49288</NORAD_CAT_ID><ELEMENT_SET_NO>999</ELEMENT_SET_NO><REV_AT_EPOCH>14549</REV_AT_EPOCH><BSTAR>.4803E-3</BSTAR><MEAN_MOTION_DOT>.205E-5</MEAN_MOTION_DOT><MEAN_MOTION_DDOT>0</MEAN_MOTION_DDOT></tleParameters></data></segment></body></omm>

</ndm>
